FENGYUN 1C DEB          
1 32191U 99025CUM 17345.31311637  .00000564  00000-0  31292-3 0  9991
2 32191  98.9650  23.3908 0109451 240.0526 118.9743 14.12311151231345
